[{"OBJECT_NAME":"YUNHAI-2 01F","OBJECT_ID":"2018-112G","EPOCH":"2026-03-09T22:32:39.167808","MEAN_MOTION":14.28981897,"ECCENTRICITY":0.00070201,"INCLINATION":50.0111,"RA_OF_ASC_NODE":288.9308,"ARG_OF_PERICENTER":341.2274,"MEAN_ANOMALY":18.8381,"EPHEMERIS_TYPE":0,"CLASSIFICATION_TYPE":"U","NORAD_CAT_ID":43915,"ELEMENT_SET_NO":999,"REV_AT_EPOCH":37411,"BSTAR":2.0666219e-5,"MEAN_MOTION_DOT":-1.09e-6,"MEAN_MOTION_DDOT":0},{"OBJECT_NAME":"CZ-6A DEB","OBJECT_ID":"2024-140BT","EPOCH":"2026-03-09T16:22:00.448896","MEAN_MOTION":14.07940294,"ECCENTRICITY":0.009691,"INCLINATION":89.0077,"RA_OF_ASC_NODE":288.0026,"ARG_OF_PERICENTER":186.1457,"MEAN_ANOMALY":173.8546,"EPHEMERIS_TYPE":0,"CLASSIFICATION_TYPE":"U","NORAD_CAT_ID":60666,"ELEMENT_SET_NO":999,"REV_AT_EPOCH":8127,"BSTAR":0.00018646745,"MEAN_MOTION_DOT":3.44e-6,"MEAN_MOTION_DDOT":0}]
